start=new Date('2022-07-17T00:00:00.000Z').valueOf();
sats=[{"SITE":"AFETR","CENTER_NAME":"EARTH","INCLINATION":"53.0557","REF_FRAME":"TEME","APOAPSIS":"548.179","BSTAR":"0.00005715000000","EPHEMERIS_TYPE":"0","OBJECT_TYPE":"PAYLOAD","OBJECT_ID":"2020-019M","PERIOD":"95.592","MEAN_MOTION":"15.06401092","CLASSIFICATION_TYPE":"U","OBJECT_NAME":"STARLINK-1287","PERIAPSIS":"546.241","REV_AT_EPOCH":"12898","RCS_SIZE":"LARGE","MEAN_MOTION_DOT":"0.00000570","MEAN_ANOMALY":"273.2663","SEMIMAJOR_AXIS":"6925.345","EPOCH":"2022-07-16T18:54:42.441408","GP_ID":"208267574","FILE":"3515618","MEAN_MOTION_DDOT":"0.0000000000000","ELEMENT_SET_NO":"999","NORAD_CAT_ID":"45371","TLE_LINE1":"1 45371U 20019M   22197.78799122  .00000570  00000-0  57150-4 0  9992","DECAY_DATE":null,"ARG_OF_PERICENTER":"86.8486","RA_OF_ASC_NODE":"25.7545","ECCENTRICITY":"0.00013990","COUNTRY_CODE":"US","LAUNCH_DATE":"2020-03-18","TIME_SYSTEM":"UTC","MEAN_ELEMENT_THEORY":"SGP4","TLE_LINE2":"2 45371  53.0557  25.7545 0001399  86.8486 273.2663 15.06401092128982"},{"ELEMENT_SET_NO":"999","MEAN_MOTION_DDOT":"0.0000000000000","FILE":"3515618","DECAY_DATE":null,"TLE_LINE1":"1 45372U 20019N   22197.80368368  .00003026  00000-0  22194-3 0  9998","NORAD_CAT_ID":"45372","COUNTRY_CODE":"US","RA_OF_ASC_NODE":"25.6882","ECCENTRICITY":"0.00014700","ARG_OF_PERICENTER":"73.4419","TLE_LINE2":"2 45372  53.0552  25.6882 0001470  73.4419 286.6732 15.06403408128987","MEAN_ELEMENT_THEORY":"SGP4","TIME_SYSTEM":"UTC","LAUNCH_DATE":"2020-03-18","REF_FRAME":"TEME","CENTER_NAME":"EARTH","INCLINATION":"53.0552","SITE":"AFETR","OBJECT_TYPE":"PAYLOAD","BSTAR":"0.00022194000000","EPHEMERIS_TYPE":"0","APOAPSIS":"548.221","PERIAPSIS":"546.185","OBJECT_NAME":"STARLINK-1288","CLASSIFICATION_TYPE":"U","MEAN_MOTION":"15.06403408","OBJECT_ID":"2020-019N","PERIOD":"95.592","GP_ID":"208268324","EPOCH":"2022-07-16T19:17:18.269952","SEMIMAJOR_AXIS":"6925.338","MEAN_ANOMALY":"286.6732","MEAN_MOTION_DOT":"0.00003026","RCS_SIZE":"LARGE","REV_AT_EPOCH":"12898"},{"OBJECT_NAME":"STARLINK-1295","PERIAPSIS":"546.311","OBJECT_ID":"2020-019P","PERIOD":"95.593","CLASSIFICATION_TYPE":"U","MEAN_MOTION":"15.06394081","EPOCH":"2022-07-16T20:26:18.660768","SEMIMAJOR_AXIS":"6925.367","GP_ID":"208268576","MEAN_ANOMALY":"285.4407","MEAN_MOTION_DOT":"0.00000585","REV_AT_EPOCH":"12899","RCS_SIZE":"LARGE","REF_FRAME":"TEME","SITE":"AFETR","CENTER_NAME":"EARTH","INCLINATION":"53.0559","OBJECT_TYPE":"PAYLOAD","BSTAR":"0.00005815600000","EPHEMERIS_TYPE":"0","APOAPSIS":"548.153","COUNTRY_CODE":"US","ECCENTRICITY":"0.00013300","RA_OF_ASC_NODE":"25.4661","ARG_OF_PERICENTER":"74.6729","TLE_LINE2":"2 45373  53.0559  25.4661 0001330  74.6729 285.4407 15.06394081128993","MEAN_ELEMENT_THEORY":"SGP4","TIME_SYSTEM":"UTC","LAUNCH_DATE":"2020-03-18","ELEMENT_SET_NO":"999","MEAN_MOTION_DDOT":"0.0000000000000","FILE":"3515618","DECAY_DATE":null,"TLE_LINE1":"1 45373U 20019P   22197.85160487  .00000585  00000-0  58156-4 0  9991","NORAD_CAT_ID":"45373"},{"COUNTRY_CODE":"US","ARG_OF_PERICENTER":"93.5870","RA_OF_ASC_NODE":"25.4870","ECCENTRICITY":"0.00013300","MEAN_ELEMENT_THEORY":"SGP4","TLE_LINE2":"2 45374  53.0554  25.4870 0001330  93.5870 266.5272 15.06402320128994","LAUNCH_DATE":"2020-03-18","TIME_SYSTEM":"UTC","ELEMENT_SET_NO":"999","FILE":"3515618","MEAN_MOTION_DDOT":"0.0000000000000","TLE_LINE1":"1 45374U 20019Q   22197.84791794  .00006851  00000-0  47833-3 0  9993","DECAY_DATE":null,"NORAD_CAT_ID":"45374","PERIAPSIS":"546.285","OBJECT_NAME":"STARLINK-1300","MEAN_MOTION":"15.06402320","CLASSIFICATION_TYPE":"U","OBJECT_ID":"2020-019Q","PERIOD":"95.592","GP_ID":"208269316","SEMIMAJOR_AXIS":"6925.341","EPOCH":"2022-07-16T20:21:00.110016","REV_AT_EPOCH":"12899","RCS_SIZE":"LARGE","MEAN_ANOMALY":"266.5272","MEAN_MOTION_DOT":"0.00006851","REF_FRAME":"TEME","INCLINATION":"53.0554","CENTER_NAME":"EARTH","SITE":"AFETR","OBJECT_TYPE":"PAYLOAD","APOAPSIS":"548.128","EPHEMERIS_TYPE":"0","BSTAR":"0.00047833000000"},{"CENTER_NAME":"EARTH","INCLINATION":"53.0554","SITE":"AFETR","REF_FRAME":"TEME","APOAPSIS":"548.089","BSTAR":"0.00018965000000","EPHEMERIS_TYPE":"0","OBJECT_TYPE":"PAYLOAD","MEAN_MOTION":"15.06397709","CLASSIFICATION_TYPE":"U","OBJECT_ID":"2020-019R","PERIOD":"95.592","PERIAPSIS":"546.352","OBJECT_NAME":"STARLINK-1302","RCS_SIZE":"LARGE","REV_AT_EPOCH":"12898","MEAN_MOTION_DOT":"0.00002544","MEAN_ANOMALY":"291.2390","GP_ID":"208268074","SEMIMAJOR_AXIS":"6925.356","EPOCH":"2022-07-16T19:06:41.330880","FILE":"3515618","MEAN_MOTION_DDOT":"0.0000000000000","ELEMENT_SET_NO":"999","NORAD_CAT_ID":"45375","TLE_LINE1":"1 45375U 20019R   22197.79631170  .00002544  00000-0  18965-3 0  9998","DECAY_DATE":null,"ARG_OF_PERICENTER":"68.8733","RA_OF_ASC_NODE":"25.7130","ECCENTRICITY":"0.00012540","COUNTRY_CODE":"US","LAUNCH_DATE":"2020-03-18","TIME_SYSTEM":"UTC","MEAN_ELEMENT_THEORY":"SGP4","TLE_LINE2":"2 45375  53.0554  25.7130 0001254  68.8733 291.2390 15.06397709128984"},{"LAUNCH_DATE":"2020-03-18","TIME_SYSTEM":"UTC","MEAN_ELEMENT_THEORY":"SGP4","TLE_LINE2":"2 45376  53.0535  25.3412 0001179  82.4375 277.6748 15.06414452128994","ARG_OF_PERICENTER":"82.4375","RA_OF_ASC_NODE":"25.3412","ECCENTRICITY":"0.00011790","COUNTRY_CODE":"US","NORAD_CAT_ID":"45376","TLE_LINE1":"1 45376U 20019S   22197.88109178  .00005268  00000-0  37215-3 0  9992","DECAY_DATE":null,"FILE":"3515618","MEAN_MOTION_DDOT":"0.0000000000000","ELEMENT_SET_NO":"999","RCS_SIZE":"LARGE","REV_AT_EPOCH":"12899","MEAN_MOTION_DOT":"0.00005268","MEAN_ANOMALY":"277.6748","GP_ID":"208267825","SEMIMAJOR_AXIS":"6925.304","EPOCH":"2022-07-16T21:08:46.329792","MEAN_MOTION":"15.06414452","CLASSIFICATION_TYPE":"U","PERIOD":"95.591","OBJECT_ID":"2020-019S","PERIAPSIS":"546.353","OBJECT_NAME":"STARLINK-1304","APOAPSIS":"547.986","BSTAR":"0.00037215000000","EPHEMERIS_TYPE":"0","OBJECT_TYPE":"PAYLOAD","CENTER_NAME":"EARTH","INCLINATION":"53.0535","SITE":"AFETR","REF_FRAME":"TEME"},{"TLE_LINE1":"1 45377U 20019T   22197.84054579  .00003418  00000-0  24823-3 0  9999","DECAY_DATE":null,"NORAD_CAT_ID":"45377","ELEMENT_SET_NO":"999","FILE":"3515618","MEAN_MOTION_DDOT":"0.0000000000000","MEAN_ELEMENT_THEORY":"SGP4","TLE_LINE2":"2 45377  53.0555  25.5100 0001341  85.0924 275.0218 15.06397278128993","LAUNCH_DATE":"2020-03-18","TIME_SYSTEM":"UTC","COUNTRY_CODE":"US","ARG_OF_PERICENTER":"85.0924","RA_OF_ASC_NODE":"25.5100","ECCENTRICITY":"0.00013410","OBJECT_TYPE":"PAYLOAD","APOAPSIS":"548.151","BSTAR":"0.00024823000000","EPHEMERIS_TYPE":"0","REF_FRAME":"TEME","SITE":"AFETR","INCLINATION":"53.0555","CENTER_NAME":"EARTH","SEMIMAJOR_AXIS":"6925.357","EPOCH":"2022-07-16T20:10:23.156256","GP_ID":"208269076","RCS_SIZE":"LARGE","REV_AT_EPOCH":"12899","MEAN_ANOMALY":"275.0218","MEAN_MOTION_DOT":"0.00003418","OBJECT_NAME":"STARLINK-1305","PERIAPSIS":"546.293","OBJECT_ID":"2020-019T","PERIOD":"95.592","MEAN_MOTION":"15.06397278","CLASSIFICATION_TYPE":"U"},{"OBJECT_TYPE":"PAYLOAD","EPHEMERIS_TYPE":"0","BSTAR":"0.00010518000000","APOAPSIS":"548.051","REF_FRAME":"TEME","CENTER_NAME":"EARTH","INCLINATION":"53.0537","SITE":"AFETR","GP_ID":"208268817","EPOCH":"2022-07-16T19:54:27.091008","SEMIMAJOR_AXIS":"6925.353","MEAN_ANOMALY":"284.6225","MEAN_MOTION_DOT":"0.00001286","RCS_SIZE":"LARGE","REV_AT_EPOCH":"12899","PERIAPSIS":"546.385","OBJECT_NAME":"STARLINK-1310","CLASSIFICATION_TYPE":"U","MEAN_MOTION":"15.06398520","PERIOD":"95.592","OBJECT_ID":"2020-019U","DECAY_DATE":null,"TLE_LINE1":"1 45378U 20019U   22197.82948022  .00001286  00000-0  10518-3 0  9990","NORAD_CAT_ID":"45378","ELEMENT_SET_NO":"999","MEAN_MOTION_DDOT":"0.0000000000000","FILE":"3515618","TLE_LINE2":"2 45378  53.0537  25.5635 0001203  75.4897 284.6225 15.06398520128991","MEAN_ELEMENT_THEORY":"SGP4","TIME_SYSTEM":"UTC","LAUNCH_DATE":"2020-03-18","COUNTRY_CODE":"US","ECCENTRICITY":"0.00012030","RA_OF_ASC_NODE":"25.5635","ARG_OF_PERICENTER":"75.4897"},{"EPOCH":"2022-07-16T19:59:45.764448","SEMIMAJOR_AXIS":"6925.356","GP_ID":"208267575","MEAN_MOTION_DOT":"-0.00002615","MEAN_ANOMALY":"266.9200","RCS_SIZE":"LARGE","REV_AT_EPOCH":"12899","OBJECT_NAME":"STARLINK-1319","PERIAPSIS":"546.245","PERIOD":"95.592","OBJECT_ID":"2020-019V","CLASSIFICATION_TYPE":"U","MEAN_MOTION":"15.06397555","OBJECT_TYPE":"PAYLOAD","BSTAR":"-0.00015672000000","EPHEMERIS_TYPE":"0","APOAPSIS":"548.197","REF_FRAME":"TEME","SITE":"AFETR","INCLINATION":"53.0548","CENTER_NAME":"EARTH","TLE_LINE2":"2 45379  53.0548  25.5494 0001409  93.1951 266.9200 15.06397555128996","MEAN_ELEMENT_THEORY":"SGP4","TIME_SYSTEM":"UTC","LAUNCH_DATE":"2020-03-18","COUNTRY_CODE":"US","ECCENTRICITY":"0.00014090","RA_OF_ASC_NODE":"25.5494","ARG_OF_PERICENTER":"93.1951","DECAY_DATE":null,"TLE_LINE1":"1 45379U 20019V   22197.83316857 -.00002615  00000-0 -15672-3 0  9992","NORAD_CAT_ID":"45379","ELEMENT_SET_NO":"999","MEAN_MOTION_DDOT":"0.0000000000000","FILE":"3515618"},{"PERIOD":"95.592","OBJECT_ID":"2020-019W","MEAN_MOTION":"15.06398342","CLASSIFICATION_TYPE":"U","OBJECT_NAME":"STARLINK-1207","PERIAPSIS":"546.364","REV_AT_EPOCH":"12926","RCS_SIZE":"LARGE","MEAN_MOTION_DOT":"0.00001695","MEAN_ANOMALY":"264.1941","SEMIMAJOR_AXIS":"6925.354","EPOCH":"2022-07-16T19:57:06.355584","GP_ID":"208268325","SITE":"AFETR","CENTER_NAME":"EARTH","INCLINATION":"53.0571","REF_FRAME":"TEME","APOAPSIS":"548.073","BSTAR":"0.00013268000000","EPHEMERIS_TYPE":"0","OBJECT_TYPE":"PAYLOAD","ARG_OF_PERICENTER":"95.9189","RA_OF_ASC_NODE":"5.5634","ECCENTRICITY":"0.00012340","COUNTRY_CODE":"US","LAUNCH_DATE":"2020-03-18","TIME_SYSTEM":"UTC","MEAN_ELEMENT_THEORY":"SGP4","TLE_LINE2":"2 45380  53.0571   5.5634 0001234  95.9189 264.1941 15.06398342129265","FILE":"3515618","MEAN_MOTION_DDOT":"0.0000000000000","ELEMENT_SET_NO":"999","NORAD_CAT_ID":"45380","TLE_LINE1":"1 45380U 20019W   22197.83132356  .00001695  00000-0  13268-3 0  9998","DECAY_DATE":null}];
